HOKUSHIN-1              
1 69648U 98067YH  26186.30495070  .00035329  00000+0  60947-3 0  9994
2 69648  51.6309 210.3030 0006058 292.7342  67.3006 15.50662628  2461
STARLINK-37656          
1 69649U 26143A   26186.58336806 -.01982175  00000+0 -24336-1 0  9995
2 69649  97.2850 230.3370 0001508  89.0049 131.4054 15.63542096  3427
STARLINK-37646          
1 69650U 26143B   26186.58336806 -.02035055  00000+0 -14524-1 0  9992
2 69650  97.2837 230.4004 0001693  90.4794 279.9596 15.77135881  3421
STARLINK-37749          
1 69651U 26143C   26185.56605093  .00418413  00000+0  20744-2 0  9998
2 69651  97.2829 229.3314 0003105  75.0816 285.0796 15.80896785  3238
STARLINK-37819          
1 69652U 26143D   26186.50003472 -.02439767  00000+0 -17321-1 0  9992
2 69652  97.2835 230.3055 0001581 102.5314 137.4422 15.77326401  3409
STARLINK-37729          
1 69653U 26143E   26186.57932492  .00342534  00000+0  16608-2 0  9992
2 69653  97.2811 230.4038 0002717 240.3852 119.7146 15.81578506  3390
STARLINK-37838          
1 69654U 26143F   26186.58304399  .00411107  00000+0  20331-2 0  9994
2 69654  97.2825 230.3975 0001471  57.6865 302.4546 15.80970599  3396
STARLINK-37884          
1 69655U 26143G   26186.50003472 -.02417376  00000+0 -20746-1 0  9992
2 69655  97.2836 230.3204 0001473  96.7611 179.8279 15.72973585  3409
STARLINK-37876          
1 69656U 26143H   26186.45179827  .00522686  00000+0  25298-2 0  9990
2 69656  97.2826 230.2701 0002392 201.6175 158.4993 15.81157656  3301
STARLINK-37784          
1 69657U 26143J   26185.62854968 -.00029972  00000+0 -15601-3 0  9995
2 69657  97.2828 229.3996 0001620 126.5846 233.5571 15.80851835  3173
STARLINK-37851          
1 69658U 26143K   26186.57358547  .00436328  00000+0  21499-2 0  9999
2 69658  97.2830 230.4107 0001423  43.7605 316.3776 15.80986559  3324
STARLINK-37229          
1 69659U 26143L   26186.50003472 -.01420189  00000+0 -93655-2 0  9991
2 69659  97.2833 230.3105 0001127 104.0757 147.9145 15.78267555  3340
STARLINK-37556          
1 69660U 26143M   26185.00003471 -.00027572  00000+0 -14367-3 0  9998
2 69660  97.2831 228.7305 0001210  82.7097 292.3102 15.80814941  3107
STARLINK-37867          
1 69661U 26143N   26186.12821757  .00288642  00000+0  14549-2 0  9994
2 69661  97.2834 229.9450 0001261 331.9939  28.1261 15.80868184  3250
STARLINK-37852          
1 69662U 26143P   26186.58336806 -.02299763  00000+0 -18643-1 0  9999
2 69662  97.2841 230.3983 0001117  98.9860 268.5766 15.74102709  3324
STARLINK-37554          
1 69663U 26143Q   26186.57359492 -.00290697  00000+0 -18737-2 0  9995
2 69663  97.2845 230.4106 0001833 125.8427 234.3010 15.76849795  3330
STARLINK-37830          
1 69664U 26143R   26185.56577747  .00666286  00000+0  32010-2 0  9998
2 69664  97.2834 229.3307 0000786  39.1182 321.0144 15.80946982  3164
STARLINK-37837          
1 69665U 26143S   26185.68582871 -.00473445  00000+0 -26404-2 0  9991
2 69665  97.2838 229.4751 0000828  84.7336 275.4027 15.80544005  3181
STARLINK-37943          
1 69666U 26143T   26186.50003472 -.02434146  00000+0 -20013-1 0  9995
2 69666  97.2837 230.3240 0001520  94.5566 190.8748 15.73992775  3306
STARLINK-37941          
1 69667U 26143U   26186.50003472 -.02463038  00000+0 -16275-1 0  9993
2 69667  97.2831 230.3267 0001739  99.7130 191.3339 15.78949747  3304
STARLINK-37930          
1 69668U 26143V   26186.57368798  .00361640  00000+0  16934-2 0  9991
2 69668  97.2827 230.4101 0023338 346.9206  13.1455 15.81914352  3328
STARLINK-37945          
1 69669U 26143W   26186.50003472 -.01330189  00000+0 -78245-2 0  9990
2 69669  97.2830 230.3338 0001238 103.2489 204.9271 15.81050230  3306
STARLINK-37948          
1 69670U 26143X   26186.58336806 -.02500489  00000+0 -28681-1 0  9991
2 69670  97.2845 230.4242 0001553  80.8502 344.5222 15.65496476  3322
STARLINK-37949          
1 69671U 26143Y   26186.50003472 -.02405477  00000+0 -21070-1 0  9990
2 69671  97.2837 230.3464 0001226  94.4227 242.4719 15.72480653  3304
STARLINK-37946          
1 69672U 26143Z   26186.50443440 -.01107852  00000+0 -70301-2 0  9991
2 69672  97.2831 230.3515 0002484 172.9569 187.1733 15.78878850  3312
TJS-26A                 
1 69674U 26144A   26174.32980920  .00009630 -16661-6  31526-3 0  9997
2 69674  19.5157 324.7456 7314561 179.7910 181.1077  2.27958502    21
STARLINK-38005          
1 69677U 26145A   26186.50003472  .00242565  00000+0  15882-2 0  9996
2 69677  97.2852  32.8592 0001425  61.9020 182.0802 15.75089426  2874
STARLINK-38009          
1 69678U 26145B   26186.58336806  .00134468  00000+0  88940-3 0  9993
2 69678  97.2850  32.9501 0001404  86.1956 279.9773 15.75160861  2885
