OBJECT_NAME,OBJECT_ID,EPOCH,MEAN_MOTION,ECCENTRICITY,INCLINATION,RA_OF_ASC_NODE,ARG_OF_PERICENTER,MEAN_ANOMALY,EPHEMERIS_TYPE,CLASSIFICATION_TYPE,NORAD_CAT_ID,ELEMENT_SET_NO,REV_AT_EPOCH,BSTAR,MEAN_MOTION_DOT,MEAN_MOTION_DDOT
HOKUSHIN-1,1998-067YH,2026-07-05T07:19:07.740480,15.50662628,.00060588,51.6309,210.3030,292.7342,67.3006,0,U,69648,999,246,.60947263E-3,.35329E-3,0
STARLINK-37656,2026-143A,2026-07-05T14:00:03.000384,15.63542096,.00015089,97.2850,230.3370,89.0049,131.4054,0,U,69649,999,342,-.24335615E-1,-.1982175E-1,0
STARLINK-37646,2026-143B,2026-07-05T14:00:03.000384,15.77135881,.00016934,97.2837,230.4004,90.4794,279.9596,0,U,69650,999,342,-.14524008E-1,-.2035055E-1,0
STARLINK-37749,2026-143C,2026-07-04T13:35:06.800352,15.80896785,.00031053,97.2829,229.3314,75.0816,285.0796,0,U,69651,999,323,.2074381E-2,.418413E-2,0
STARLINK-37819,2026-143D,2026-07-05T12:00:02.999808,15.77326401,.00015817,97.2835,230.3055,102.5314,137.4422,0,U,69652,999,340,-.17321297E-1,-.2439767E-1,0
STARLINK-37729,2026-143E,2026-07-05T13:54:13.673088,15.81578506,.00027177,97.2811,230.4038,240.3852,119.7146,0,U,69653,999,339,.16607628E-2,.342534E-2,0
STARLINK-37838,2026-143F,2026-07-05T13:59:35.000736,15.80970599,.00014717,97.2825,230.3975,57.6865,302.4546,0,U,69654,999,339,.20330793E-2,.411107E-2,0
STARLINK-37884,2026-143G,2026-07-05T12:00:02.999808,15.72973585,.0001473,97.2836,230.3204,96.7611,179.8279,0,U,69655,999,340,-.20745575E-1,-.2417376E-1,0
STARLINK-37876,2026-143H,2026-07-05T10:50:35.370528,15.81157656,.00023922,97.2826,230.2701,201.6175,158.4993,0,U,69656,999,330,.25297987E-2,.522686E-2,0
STARLINK-37784,2026-143J,2026-07-04T15:05:06.692352,15.80851835,.000162,97.2828,229.3996,126.5846,233.5571,0,U,69657,999,317,-.15601E-3,-.29972E-3,0
STARLINK-37851,2026-143K,2026-07-05T13:45:57.784608,15.80986559,.00014232,97.2830,230.4107,43.7605,316.3776,0,U,69658,999,332,.21498686E-2,.436328E-2,0
STARLINK-37229,2026-143L,2026-07-05T12:00:02.999808,15.78267555,.00011273,97.2833,230.3105,104.0757,147.9145,0,U,69659,999,334,-.93655312E-2,-.1420189E-1,0
STARLINK-37556,2026-143M,2026-07-04T00:00:02.998944,15.80814941,.000121,97.2831,228.7305,82.7097,292.3102,0,U,69660,999,310,-.14367E-3,-.27572E-3,0
STARLINK-37867,2026-143N,2026-07-05T03:04:37.998048,15.80868184,.0001261,97.2834,229.9450,331.9939,28.1261,0,U,69661,999,325,.14549E-2,.288642E-2,0
STARLINK-37852,2026-143P,2026-07-05T14:00:03.000384,15.74102709,.00011171,97.2841,230.3983,98.9860,268.5766,0,U,69662,999,332,-.18643424E-1,-.2299763E-1,0
STARLINK-37554,2026-143Q,2026-07-05T13:45:58.601088,15.76849795,.00018335,97.2845,230.4106,125.8427,234.3010,0,U,69663,999,333,-.18736889E-2,-.290697E-2,0
STARLINK-37830,2026-143R,2026-07-04T13:34:43.173408,15.80946982,.00007868,97.2834,229.3307,39.1182,321.0144,0,U,69664,999,316,.32009925E-2,.666286E-2,0
STARLINK-37837,2026-143S,2026-07-04T16:27:35.599680,15.80544005,.0000828,97.2838,229.4751,84.7336,275.4027,0,U,69665,999,318,-.26404E-2,-.473445E-2,0
STARLINK-37943,2026-143T,2026-07-05T12:00:02.999808,15.73992775,.00015208,97.2837,230.3240,94.5566,190.8748,0,U,69666,999,330,-.20012635E-1,-.2434146E-1,0
STARLINK-37941,2026-143U,2026-07-05T12:00:02.999808,15.78949747,.00017397,97.2831,230.3267,99.7130,191.3339,0,U,69667,999,330,-.16274944E-1,-.2463038E-1,0
STARLINK-37930,2026-143V,2026-07-05T13:46:06.641472,15.81914352,.0023338,97.2827,230.4101,346.9206,13.1455,0,U,69668,999,332,.16933822E-2,.36164E-2,0
STARLINK-37945,2026-143W,2026-07-05T12:00:02.999808,15.81050230,.00012384,97.2830,230.3338,103.2489,204.9271,0,U,69669,999,330,-.78244559E-2,-.1330189E-1,0
STARLINK-37948,2026-143X,2026-07-05T14:00:03.000384,15.65496476,.00015536,97.2845,230.4242,80.8502,344.5222,0,U,69670,999,332,-.28681087E-1,-.2500489E-1,0
STARLINK-37949,2026-143Y,2026-07-05T12:00:02.999808,15.72480653,.00012266,97.2837,230.3464,94.4227,242.4719,0,U,69671,999,330,-.21069912E-1,-.2405477E-1,0
STARLINK-37946,2026-143Z,2026-07-05T12:06:23.132160,15.78878850,.00024844,97.2831,230.3515,172.9569,187.1733,0,U,69672,999,331,-.70301469E-2,-.1107852E-1,0
TJS-26A,2026-144A,2026-06-23T07:54:55.514880,2.27958502,.73145613,19.5157,324.7456,179.7910,181.1077,0,U,69674,999,2,.31526459E-3,.963E-4,-.166614E-6
STARLINK-38005,2026-145A,2026-07-05T12:00:02.999808,15.75089426,.00014259,97.2852,32.8592,61.9020,182.0802,0,U,69677,999,287,.15882425E-2,.242565E-2,0
STARLINK-38009,2026-145B,2026-07-05T14:00:03.000384,15.75160861,.00014045,97.2850,32.9501,86.1956,279.9773,0,U,69678,999,288,.88939665E-3,.134468E-2,0
